[{"OBJECT_NAME":"PRAETORIAN SDA_617","OBJECT_ID":"2025-203R","EPOCH":"2026-03-09T13:00:56.284704","MEAN_MOTION":13.83191555,"ECCENTRICITY":0.00087532,"INCLINATION":81.3005,"RA_OF_ASC_NODE":103.0292,"ARG_OF_PERICENTER":101.6074,"MEAN_ANOMALY":258.6065,"EPHEMERIS_TYPE":0,"CLASSIFICATION_TYPE":"U","NORAD_CAT_ID":65580,"ELEMENT_SET_NO":999,"REV_AT_EPOCH":2491,"BSTAR":5.9995099e-5,"MEAN_MOTION_DOT":7.8e-7,"MEAN_MOTION_DDOT":0},{"OBJECT_NAME":"SDA_1676","OBJECT_ID":"2025-230N","EPOCH":"2026-03-09T23:10:57.103680","MEAN_MOTION":13.84599753,"ECCENTRICITY":0.00032308,"INCLINATION":81.3008,"RA_OF_ASC_NODE":303.8061,"ARG_OF_PERICENTER":59.6386,"MEAN_ANOMALY":300.509,"EPHEMERIS_TYPE":0,"CLASSIFICATION_TYPE":"U","NORAD_CAT_ID":65986,"ELEMENT_SET_NO":999,"REV_AT_EPOCH":2007,"BSTAR":0.00022843479,"MEAN_MOTION_DOT":2.68e-6,"MEAN_MOTION_DDOT":0}]
